TIANMU-1 21             
1 58662U 23208C   26159.83833031  .00009095  00000+0  27069-3 0  9993
2 58662  97.4492 279.3685 0006643 358.0205   2.1011 15.34929324136283
TIANMU-1 22             
1 58663U 23208D   26159.83751862  .00007513  00000+0  25383-3 0  9995
2 58663  97.4487 276.0394 0003998  32.3339 327.8146 15.30942565136058
TIANMU-1 15             
1 58700U 24004A   26159.84176572  .00006159  00000+0  23551-3 0  9992
2 58700  97.4674 346.0314 0007538  30.3090 329.8583 15.26939375134509
TIANMU-1 16             
1 58701U 24004B   26159.82949862  .00006014  00000+0  23197-3 0  9997
2 58701  97.4621 345.2655 0006660  34.9966 325.1709 15.26664520134504
TIANMU-1 17             
1 58702U 24004C   26159.88049265  .00006141  00000+0  23680-3 0  9990
2 58702  97.4649 345.7982 0006314  40.6885 319.4825 15.26664738134509
TIANMU-1 18             
1 58703U 24004D   26159.85828416  .00005961  00000+0  22823-3 0  9998
2 58703  97.4666 346.0262 0004810  40.3665 319.7930 15.26922829134504
INSAT-3DS               
1 58990U 24033A   26159.71642308 -.00000140  00000+0  00000+0 0  9991
2 58990   0.0153 150.7149 0001245 282.0840 164.2990  1.00273049 46989
METEOR-M2 4             
1 59051U 24039A   26159.88307012  .00000024  00000+0  30489-4 0  9993
2 59051  98.7007 119.2857 0006801 184.7267 175.3848 14.22428772118089
GOES 19                 
1 60133U 24119A   26159.75651119 -.00000232  00000+0  00000+0 0  9994
2 60133   0.0273 156.4327 0000671 351.8126 306.0593  1.00275268  6884
MTG-S1                  
1 64723U 25143A   26159.77075936 -.00000016  00000+0  00000+0 0  9990
2 64723   0.6109 337.0195 0001043  27.7333 166.3997  1.00271621  3331
METOP-SGA1              
1 65159U 25172A   26159.76263676  .00000046  00000+0  40975-4 0  9997
2 65159  98.6646 219.6440 0000939  88.0177 272.1107 14.21508489 42597
FENGYUN 3H              
1 65815U 25219A   26159.79650521  .00000070  00000+0  53573-4 0  9995
2 65815  98.6766 100.7289 0001634  83.2609 276.8753 14.19919104 36194
