OBJECT_NAME,OBJECT_ID,EPOCH,MEAN_MOTION,ECCENTRICITY,INCLINATION,RA_OF_ASC_NODE,ARG_OF_PERICENTER,MEAN_ANOMALY,EPHEMERIS_TYPE,CLASSIFICATION_TYPE,NORAD_CAT_ID,ELEMENT_SET_NO,REV_AT_EPOCH,BSTAR,MEAN_MOTION_DOT,MEAN_MOTION_DDOT
TIANMU-1 21,2023-208C,2026-06-08T20:07:11.738784,15.34929324,.0006643,97.4492,279.3685,358.0205,2.1011,0,U,58662,999,13628,.27069E-3,.9095E-4,0
TIANMU-1 22,2023-208D,2026-06-08T20:06:01.608768,15.30942565,.0003998,97.4487,276.0394,32.3339,327.8146,0,U,58663,999,13605,.25383E-3,.7513E-4,0
TIANMU-1 15,2024-004A,2026-06-08T20:12:08.558208,15.26939375,.0007538,97.4674,346.0314,30.3090,329.8583,0,U,58700,999,13450,.23551E-3,.6159E-4,0
TIANMU-1 16,2024-004B,2026-06-08T19:54:28.680768,15.26664520,.000666,97.4621,345.2655,34.9966,325.1709,0,U,58701,999,13450,.23197E-3,.6014E-4,0
TIANMU-1 17,2024-004C,2026-06-08T21:07:54.564960,15.26664738,.0006314,97.4649,345.7982,40.6885,319.4825,0,U,58702,999,13450,.2368E-3,.6141E-4,0
TIANMU-1 18,2024-004D,2026-06-08T20:35:55.751424,15.26922829,.000481,97.4666,346.0262,40.3665,319.7930,0,U,58703,999,13450,.22823E-3,.5961E-4,0
INSAT-3DS,2024-033A,2026-06-08T17:11:38.954112,1.00273049,.0001245,0.0153,150.7149,282.0840,164.2990,0,U,58990,999,4698,0,-.14E-5,0
METEOR-M2 4,2024-039A,2026-06-08T21:11:37.258368,14.22428772,.0006801,98.7007,119.2857,184.7267,175.3848,0,U,59051,999,11808,.30489E-4,.24E-6,0
GOES 19,2024-119A,2026-06-08T18:09:22.566816,1.00275268,.0000671,0.0273,156.4327,351.8126,306.0593,0,U,60133,999,688,0,-.232E-5,0
MTG-S1,2025-143A,2026-06-08T18:29:53.608704,1.00271621,.0001043,0.6109,337.0195,27.7333,166.3997,0,U,64723,999,333,0,-.16E-6,0
METOP-SGA1,2025-172A,2026-06-08T18:18:11.816064,14.21508489,.0000939,98.6646,219.6440,88.0177,272.1107,0,U,65159,999,4259,.40975E-4,.46E-6,0
FENGYUN 3H,2025-219A,2026-06-08T19:06:58.050144,14.19919104,.0001634,98.6766,100.7289,83.2609,276.8753,0,U,65815,999,3619,.53573E-4,.7E-6,0
